{
    "links": {
        "self": "http://www.neowsapp.com/rest/v1/neo/54054713?api_key=iIulBulltgU6a56xZRHN4H3l9WmuAYTsLGpBGhQ2"
    },
    "id": "54054713",
    "neo_reference_id": "54054713",
    "name": "(2020 ST6)",
    "designation": "2020 ST6",
    "nasa_jpl_url": "http://ssd.jpl.nasa.gov/sbdb.cgi?sstr=54054713",
    "absolute_magnitude_h": 24.545,
    "estimated_diameter": {
        "kilometers": {
            "estimated_diameter_min": 0.0327759265,
            "estimated_diameter_max": 0.0732891996
        },
        "meters": {
            "estimated_diameter_min": 32.7759264672,
            "estimated_diameter_max": 73.2891996062
        },
        "miles": {
            "estimated_diameter_min": 0.0203660102,
            "estimated_diameter_max": 0.0455397832
        },
        "feet": {
            "estimated_diameter_min": 107.5325705907,
            "estimated_diameter_max": 240.4501376362
        }
    },
    "is_potentially_hazardous_asteroid": false,
    "close_approach_data": [
        {
            "close_approach_date": "2020-09-28",
            "close_approach_date_full": "2020-Sep-28 19:01",
            "epoch_date_close_approach": 1601319660000,
            "relative_velocity": {
                "kilometers_per_second": "11.1579747895",
                "kilometers_per_hour": "40168.7092422295",
                "miles_per_hour": "24959.2738066509"
            },
            "miss_distance": {
                "astronomical": "0.0417362826",
                "lunar": "16.2354139314",
                "kilometers": "6243658.978678062",
                "miles": "3879629.7885267756"
            },
            "orbiting_body": "Earth"
        }
    ],
    "orbital_data": {
        "orbit_id": "10",
        "orbit_determination_date": "2020-10-18 08:05:58",
        "first_observation_date": "2020-09-28",
        "last_observation_date": "2020-10-16",
        "data_arc_in_days": 18,
        "observations_used": 83,
        "orbit_uncertainty": "7",
        "minimum_orbit_intersection": ".041387",
        "jupiter_tisserand_invariant": "3.720",
        "epoch_osculation": "2459000.5",
        "eccentricity": ".4911387121968211",
        "semi_major_axis": "1.940300008763549",
        "inclination": "12.71287797073731",
        "ascending_node_longitude": "191.7473946199109",
        "orbital_period": "987.1922910909593",
        "perihelion_distance": ".9873435611839387",
        "perihelion_argument": "143.1243836829738",
        "aphelion_distance": "2.893256456343159",
        "perihelion_time": "2459095.743301955720",
        "mean_anomaly": "325.2675684225943",
        "mean_motion": ".3646705948262209",
        "equinox": "J2000",
        "orbit_class": {
            "orbit_class_type": "APO",
            "orbit_class_description": "Near-Earth asteroid orbits which cross the Earth’s orbit similar to that of 1862 Apollo",
            "orbit_class_range": "a (semi-major axis) > 1.0 AU; q (perihelion) < 1.017 AU"
        }
    },
    "is_sentry_object": false
}